OBJECT_NAME,OBJECT_ID,EPOCH,MEAN_MOTION,ECCENTRICITY,INCLINATION,RA_OF_ASC_NODE,ARG_OF_PERICENTER,MEAN_ANOMALY,EPHEMERIS_TYPE,CLASSIFICATION_TYPE,NORAD_CAT_ID,ELEMENT_SET_NO,REV_AT_EPOCH,BSTAR,MEAN_MOTION_DOT,MEAN_MOTION_DDOT
STARLINK-36753,2026-025B,2026-06-04T06:06:11.211552,15.33442402,.00022779,97.2838,266.6412,319.8775,40.2299,0,U,67694,999,1928,.68163045E-3,.21994E-3,0
STARLINK-36750,2026-025C,2026-06-05T06:38:20.576256,15.33460781,.00006432,97.2845,267.7036,327.7486,32.3718,0,U,67695,999,1943,.67137565E-3,.21672E-3,0
STARLINK-36401,2026-025D,2026-06-05T01:29:01.832064,15.33466041,.00001,97.2843,267.5371,273.6307,86.4924,0,U,67696,999,1940,.11074271E-2,.3587E-3,0
STARLINK-36704,2026-025E,2026-06-05T00:06:48.900960,15.33452398,.00000999,97.2825,267.4570,272.2492,87.8739,0,U,67697,999,1939,.9367917E-3,.30296E-3,0
STARLINK-36697,2026-025F,2026-06-05T01:32:57.131232,15.33467722,.00010839,97.2854,267.5346,96.1891,263.9475,0,U,67698,999,1940,.12470122E-2,.40428E-3,0
STARLINK-36716,2026-025G,2026-06-05T00:45:58.258656,15.33460310,.00015745,97.2846,267.4255,97.1374,263.0048,0,U,67699,999,1940,.11979956E-2,.38819E-3,0
STARLINK-36712,2026-025H,2026-06-05T06:34:25.687488,15.33475266,.00002416,97.2868,267.7104,6.9168,353.2078,0,U,67700,999,1943,.10124644E-2,.32784E-3,0
STARLINK-36713,2026-025J,2026-06-05T00:42:03.235968,15.33458153,.00014704,97.2875,267.4296,123.0076,237.1308,0,U,67701,999,1940,.11346999E-2,.36751E-3,0
STARLINK-36695,2026-025K,2026-06-05T01:17:17.466432,15.33462080,.00009184,97.2855,267.5479,93.2038,266.9310,0,U,67702,999,1940,.15709968E-2,.51013E-3,0
STARLINK-36630,2026-025L,2026-06-05T01:36:51.398784,15.33464310,.00007467,97.2864,267.5274,269.6185,90.4972,0,U,67703,999,1940,.78526892E-3,.25377E-3,0
STARLINK-36338,2026-025M,2026-06-05T00:49:52.834656,15.33457437,.0000404,97.2849,267.4208,46.6935,313.4341,0,U,67704,999,1939,.99238936E-3,.32112E-3,0
STARLINK-36316,2026-025N,2026-06-05T06:54:00.193536,15.33450353,.00006977,97.2848,267.6872,141.1633,218.9660,0,U,67705,999,1943,.93549594E-3,.30252E-3,0
STARLINK-36707,2026-025P,2026-06-05T06:42:15.466752,15.33473741,.00011525,97.2844,267.7002,104.9612,255.1758,0,U,67706,999,1943,.10649671E-2,.34494E-3,0
STARLINK-36645,2026-025Q,2026-06-05T01:05:32.273088,15.33473593,.00002854,97.2874,267.5615,282.8994,77.2216,0,U,67707,999,1940,.11586467E-2,.3755E-3,0
STARLINK-36287,2026-025R,2026-06-05T01:21:11.822976,15.33474651,.0000692,97.2856,267.5481,314.1547,45.9639,0,U,67708,999,1941,.10916263E-2,.35365E-3,0
STARLINK-36698,2026-025S,2026-06-05T07:25:19.517952,15.33461964,.00013848,97.2868,267.8169,95.6433,264.4968,0,U,67709,999,1944,.7089511E-3,.22894E-3,0
STARLINK-36344,2026-025T,2026-06-04T17:54:51.564096,15.33457326,.00002699,97.2838,267.1997,84.2091,275.9182,0,U,67710,999,1936,.10781551E-2,.34906E-3,0
STARLINK-36687,2026-025U,2026-06-05T01:01:37.799904,15.33461466,.00010303,97.2851,267.5665,75.8510,284.2847,0,U,67711,999,1941,.15897285E-2,.51626E-3,0
STARLINK-36705,2026-025V,2026-06-05T06:50:05.277120,15.33453134,.00007005,97.2845,267.6943,112.9450,247.1867,0,U,67712,999,1943,.90615701E-3,.293E-3,0
STARLINK-36708,2026-025W,2026-06-05T00:59:30.060960,15.33461388,.00011308,97.2862,266.6548,74.7123,285.4244,0,U,67713,999,1934,.10333065E-2,.33449E-3,0
STARLINK-36702,2026-025X,2026-06-05T06:46:10.296768,15.33462058,.00025095,97.2833,267.6944,118.8242,241.3253,0,U,67714,999,1943,.62208052E-3,.20074E-3,0
STARLINK-36718,2026-025Y,2026-06-05T06:30:30.725280,15.33456245,.00029444,97.2872,267.7182,129.8254,230.3248,0,U,67715,999,1943,.64692378E-3,.20877E-3,0
STARLINK-36715,2026-025Z,2026-06-05T00:57:42.499008,15.33454677,.00002161,97.2878,267.4172,62.0240,298.1025,0,U,67716,999,1939,.80300452E-3,.25946E-3,0
STARLINK-36385,2026-025AA,2026-06-04T06:37:30.362304,15.33462142,.0001388,97.2839,266.7712,125.8946,234.2426,0,U,67717,999,1928,.80315E-3,.25957E-3,0
STARLINK-36772,2026-026A,2026-06-05T01:49:22.017792,15.33451291,.00030508,97.2842,209.3764,122.0184,238.1355,0,U,67721,999,1751,.56640746E-3,.18261E-3,0
STARLINK-36796,2026-026B,2026-06-05T01:45:27.177408,15.33450965,.000136,97.2835,209.3797,92.5463,267.5935,0,U,67722,999,1751,.67424506E-3,.21759E-3,0
STARLINK-36369,2026-026C,2026-06-05T01:41:32.171136,15.33456650,.00023253,97.2842,209.3845,134.7603,225.3830,0,U,67723,999,1751,.7947919E-3,.25682E-3,0
STARLINK-36752,2026-026D,2026-06-04T16:13:48.718848,15.33456653,.00022442,97.2854,209.0036,325.9348,34.1751,0,U,67724,999,1745,.70402271E-3,.22731E-3,0
STARLINK-36754,2026-026E,2026-06-04T17:43:51.765312,15.33461554,.00007683,97.2849,209.0694,319.9330,40.1856,0,U,67725,999,1746,.72659974E-3,.23467E-3,0
STARLINK-36755,2026-026F,2026-06-04T16:05:58.600896,15.33453357,.00007373,97.2863,209.0042,277.0836,83.0323,0,U,67726,999,1745,.49536428E-3,.15955E-3,0
STARLINK-36741,2026-026G,2026-06-04T17:36:02.153664,15.33443882,.0000917,97.2861,209.0730,43.0695,317.0619,0,U,67727,999,1746,.39984E-3,.12855E-3,0
STARLINK-36757,2026-026H,2026-06-04T17:32:07.314144,15.33444449,.0000774,97.2850,209.0766,59.1154,301.0164,0,U,67728,999,1746,.65072E-3,.20991E-3,0
STARLINK-36751,2026-026J,2026-06-05T01:14:08.809440,15.33433468,.00006393,97.2816,209.4078,100.4666,259.6649,0,U,67729,999,1751,.78358964E-3,.25298E-3,0
STARLINK-36747,2026-026K,2026-06-05T01:18:02.897280,15.33453440,.00016149,97.2822,209.4049,92.5444,267.5984,0,U,67730,999,1751,.79226221E-3,.25596E-3,0
STARLINK-36315,2026-026L,2026-06-05T01:10:12.848448,15.33446017,.00012838,97.2811,209.4113,82.9986,277.1403,0,U,67731,999,1751,.63657962E-3,.20533E-3,0
STARLINK-36260,2026-026M,2026-06-04T17:16:27.201792,15.33460585,.0000542,97.2806,209.0929,84.7519,275.3785,0,U,67732,999,1746,.34057E-3,.10941E-3,0
STARLINK-36746,2026-026N,2026-06-05T02:36:21.096000,15.33449450,.00021507,97.2810,209.4776,130.0174,230.1258,0,U,67733,999,1752,.67666404E-3,.21837E-3,0
STARLINK-36749,2026-026P,2026-06-05T02:32:26.140704,15.33453004,.00017389,97.2801,209.4846,130.7690,229.3704,0,U,67734,999,1752,.70423998E-3,.22735E-3,0
STARLINK-36691,2026-026Q,2026-06-05T02:24:36.439200,15.33448839,.00019829,97.2815,209.4951,112.6143,247.5309,0,U,67735,999,1752,.57711699E-3,.18605E-3,0
STARLINK-36317,2026-026R,2026-06-05T02:28:31.293408,15.33448720,.00016022,97.2816,209.4913,123.9650,236.1745,0,U,67736,999,1752,.57448477E-3,.18519E-3,0
STARLINK-36330,2026-026S,2026-06-05T02:20:41.393184,15.33445148,.00003806,97.2842,209.5010,123.2082,236.9198,0,U,67737,999,1752,.81915911E-3,.26463E-3,0
STARLINK-36327,2026-026T,2026-06-05T02:16:46.465536,15.33454610,.00021656,97.2833,209.5059,123.3430,236.8020,0,U,67738,999,1752,.72227568E-3,.23323E-3,0
STARLINK-36329,2026-026U,2026-06-05T01:53:16.797696,15.33453293,.00017995,97.2838,209.5283,133.8377,226.3015,0,U,67739,999,1752,.65347357E-3,.21086E-3,0
STARLINK-36737,2026-026V,2026-06-05T02:12:51.524064,15.33451744,.00021757,97.2851,209.5109,120.0716,240.0743,0,U,67740,999,1752,.63161897E-3,.20376E-3,0
STARLINK-36740,2026-026W,2026-06-05T01:57:11.829024,15.33448620,.00026599,97.2848,209.5220,121.5252,238.6251,0,U,67741,999,1752,.56362778E-3,.18168E-3,0
STARLINK-36693,2026-026X,2026-06-05T02:08:56.717376,15.33457937,.00034344,97.2845,209.5142,115.8796,244.2801,0,U,67742,999,1752,.60339986E-3,.19466E-3,0
STARLINK-36717,2026-026Y,2026-06-05T02:01:06.641760,15.33451723,.00021894,97.2858,209.5193,133.6369,226.5056,0,U,67743,999,1752,.58966727E-3,.19014E-3,0
STARLINK-36692,2026-026Z,2026-06-05T02:05:01.748256,15.33452856,.00022723,97.2839,209.5159,124.6258,235.5199,0,U,67744,999,1752,.60305946E-3,.1945E-3,0
2026-027A,2026-027A,2026-06-05T06:50:36.102048,15.18979375,.00085579,97.5055,284.5463,253.1407,106.8889,0,U,67746,999,1715,.305281E-3,.6322E-4,0
2026-027B,2026-027B,2026-06-05T06:40:04.221696,15.19073197,.00086806,97.5052,284.5481,255.9721,104.0549,0,U,67747,999,1715,.2914534E-3,.6049E-4,0
2026-027C,2026-027C,2026-06-05T02:09:22.598496,15.18719819,.00092482,97.5066,284.3580,259.4505,100.5687,0,U,67748,999,1712,.27973857E-3,.5744E-4,0
2026-027D,2026-027D,2026-06-05T07:26:40.701120,15.19676980,.0008722,97.5052,284.6657,262.6196,97.4047,0,U,67749,999,1711,.37802956E-3,.8007E-4,0
2026-027E,2026-027E,2026-06-05T01:21:29.059776,15.19408222,.00080665,97.5068,284.4091,267.2124,92.8188,0,U,67750,999,1712,.36229853E-3,.761E-4,0
2026-027F,2026-027F,2026-06-03T07:03:36.692352,15.12112756,.0010613,97.5057,282.0129,157.6286,202.5409,0,U,67751,999,1681,.16576E-3,.2793E-4,0
2026-027G,2026-027G,2026-06-05T02:14:08.554848,15.13261450,.00108946,97.5060,283.5918,293.4773,66.5313,0,U,67752,999,1707,.40266172E-3,.7107E-4,0
2025-313BF,2025-313BF,2026-06-04T03:48:30.735648,15.47618669,.00018196,97.3872,232.4631,88.1130,272.0329,0,U,67755,999,1981,.34544049E-3,.17739E-3,0
ELEKTRO-L 5,2026-028A,2026-06-05T02:01:47.660160,1.00271291,.00015296,0.2741,307.3800,183.2109,229.4283,0,U,67756,999,113,0,-.85E-6,0
JAM-E JAM 1,2026-028B,2026-06-05T05:07:21.537408,1.00270550,.00007243,0.2862,298.8466,301.5448,124.0014,0,U,67757,999,100,0,.168E-5,0
KUIPER-00159,2026-030A,2026-06-05T06:41:40.320096,15.37963087,.00068165,51.8819,155.9680,12.0314,348.0835,0,U,67764,999,1856,.10470995E-2,.3955E-3,0
KUIPER-00160,2026-030B,2026-06-05T06:45:15.702336,15.38270575,.00066859,51.8773,155.9403,15.2284,344.8903,0,U,67765,999,1856,.75716774E-3,.28737E-3,0
KUIPER-00177,2026-030C,2026-06-05T06:31:24.777120,14.79938760,.00004563,51.8987,185.8311,82.3947,277.7067,0,U,67766,999,1814,.2682011E-3,.1824E-4,0
KUIPER-00178,2026-030D,2026-06-05T06:37:36.913152,14.76480950,.00003386,51.8991,185.4953,69.0983,291.0014,0,U,67767,999,1815,.23031606E-3,.1404E-4,0
KUIPER-00180,2026-030E,2026-06-04T05:31:55.539552,14.79931128,.00003839,51.8959,185.4313,76.3794,283.7211,0,U,67768,999,1806,.10198744E-3,.556E-5,0
KUIPER-00197,2026-030F,2026-06-05T06:00:04.999968,14.83975862,.00031477,51.8989,160.7275,38.3765,350.4829,0,U,67769,999,590,-.74513577E-2,-.62261E-3,0
